{
  "type": "FeatureCollection",
  "features": [
    {
      "type": "Feature",
      "properties": {
        "norad_id": 66639,
        "name": "STARLINK-35908",
        "group": "last-30-days",
        "lat": -39.66099074037345,
        "lon": 79.49737358941016,
        "alt_km": 317.30225003783835,
        "timestamp": "2025-12-05T18:53:12.098109+00:00",
        "meta_object_name": "STARLINK-35908",
        "meta_object_id": "2025-271Y",
        "meta_epoch": "2025-12-04T02:34:25.508352",
        "meta_mean_motion": 15.84226755,
        "meta_eccentricity": 0.00097052,
        "meta_inclination": 53.1556,
        "meta_ra_of_asc_node": 229.5367,
        "meta_arg_of_pericenter": 335.6046,
        "meta_mean_anomaly": 24.4518,
        "meta_ephemeris_type": 0,
        "meta_classification_type": "U",
        "meta_norad_cat_id": 66639,
        "meta_element_set_no": 999,
        "meta_rev_at_epoch": 285,
        "meta_bstar": 0.0030756132,
        "meta_mean_motion_dot": 0.00777445,
        "meta_mean_motion_ddot": 0,
        "tle_line1": "1 66639U 25271Y   25338.10723968  .00777445  00000+0  30756-2 0  9990",
        "tle_line2": "2 66639  53.1556 229.5367 0009705 335.6046  24.4518 15.84226755  2853"
      },
      "geometry": {
        "type": "Point",
        "coordinates": [
          79.49737358941016,
          -39.66099074037345
        ]
      }
    },
    {
      "type": "Feature",
      "properties": {
        "norad_id": 66640,
        "name": "STARLINK-35921",
        "group": "last-30-days",
        "lat": -24.11863971488203,
        "lon": 60.71998126324628,
        "alt_km": 330.4692181164937,
        "timestamp": "2025-12-05T18:53:12.098119+00:00",
        "meta_object_name": "STARLINK-35921",
        "meta_object_id": "2025-271Z",
        "meta_epoch": "2025-12-04T07:07:23.950272",
        "meta_mean_motion": 15.81318878,
        "meta_eccentricity": 0.0004963,
        "meta_inclination": 53.1562,
        "meta_ra_of_asc_node": 228.5854,
        "meta_arg_of_pericenter": 9.2257,
        "meta_mean_anomaly": 350.8856,
        "meta_ephemeris_type": 0,
        "meta_classification_type": "U",
        "meta_norad_cat_id": 66640,
        "meta_element_set_no": 999,
        "meta_rev_at_epoch": 288,
        "meta_bstar": 0.0015698,
        "meta_mean_motion_dot": 0.00327985,
        "meta_mean_motion_ddot": 0,
        "tle_line1": "1 66640U 25271Z   25338.29680498  .00327985  00000+0  15698-2 0  9990",
        "tle_line2": "2 66640  53.1562 228.5854 0004963   9.2257 350.8856 15.81318878  2880"
      },
      "geometry": {
        "type": "Point",
        "coordinates": [
          60.71998126324628,
          -24.11863971488203
        ]
      }
    },
    {
      "type": "Feature",
      "properties": {
        "norad_id": 66641,
        "name": "STARLINK-35923",
        "group": "last-30-days",
        "lat": -32.93361730108439,
        "lon": 70.1400113875407,
        "alt_km": 318.6904739311831,
        "timestamp": "2025-12-05T18:53:12.098129+00:00",
        "meta_object_name": "STARLINK-35923",
        "meta_object_id": "2025-271AA",
        "meta_epoch": "2025-12-05T05:49:45.867936",
        "meta_mean_motion": 15.82828724,
        "meta_eccentricity": 0.00292539,
        "meta_inclination": 53.1564,
        "meta_ra_of_asc_node": 223.819,
        "meta_arg_of_pericenter": 299.3636,
        "meta_mean_anomaly": 60.4467,
        "meta_ephemeris_type": 0,
        "meta_classification_type": "U",
        "meta_norad_cat_id": 66641,
        "meta_element_set_no": 999,
        "meta_rev_at_epoch": 303,
        "meta_bstar": 0.0053548979,
        "meta_mean_motion_dot": 0.0135013,
        "meta_mean_motion_ddot": 0,
        "tle_line1": "1 66641U 25271AA  25339.24289199  .01350130  00000+0  53549-2 0  9996",
        "tle_line2": "2 66641  53.1564 223.8190 0029253 299.3636  60.4467 15.82828724  3033"
      },
      "geometry": {
        "type": "Point",
        "coordinates": [
          70.1400113875407,
          -32.93361730108439
        ]
      }
    },
    {
      "type": "Feature",
      "properties": {
        "norad_id": 66642,
        "name": "STARLINK-35926",
        "group": "last-30-days",
        "lat": -19.29724519966146,
        "lon": 56.34016460237728,
        "alt_km": 338.74438735961485,
        "timestamp": "2025-12-05T18:53:12.098139+00:00",
        "meta_object_name": "STARLINK-35926",
        "meta_object_id": "2025-271AB",
        "meta_epoch": "2025-12-05T04:20:31.083648",
        "meta_mean_motion": 15.779,
        "meta_eccentricity": 0.0002359,
        "meta_inclination": 53.1543,
        "meta_ra_of_asc_node": 224.1424,
        "meta_arg_of_pericenter": 227.7076,
        "meta_mean_anomaly": 132.3746,
        "meta_ephemeris_type": 0,
        "meta_classification_type": "U",
        "meta_norad_cat_id": 66642,
        "meta_element_set_no": 999,
        "meta_rev_at_epoch": 298,
        "meta_bstar": -0.0013018128,
        "meta_mean_motion_dot": -0.00219523,
        "meta_mean_motion_ddot": 0,
        "tle_line1": "1 66642U 25271AB  25339.18091532 -.00219523  00000+0 -13018-2 0  9990",
        "tle_line2": "2 66642  53.1543 224.1424 0002359 227.7076 132.3746 15.77900000  2980"
      },
      "geometry": {
        "type": "Point",
        "coordinates": [
          56.34016460237728,
          -19.29724519966146
        ]
      }
    },
    {
      "type": "Feature",
      "properties": {
        "norad_id": 66643,
        "name": "STARLINK-35918",
        "group": "last-30-days",
        "lat": -30.643903715077332,
        "lon": 67.46294067816737,
        "alt_km": 316.6687329651022,
        "timestamp": "2025-12-05T18:53:12.098151+00:00",
        "meta_object_name": "STARLINK-35918",
        "meta_object_id": "2025-271AC",
        "meta_epoch": "2025-12-04T20:45:01.404576",
        "meta_mean_motion": 15.82179053,
        "meta_eccentricity": 0.00144,
        "meta_inclination": 53.1558,
        "meta_ra_of_asc_node": 225.7279,
        "meta_arg_of_pericenter": 264.2391,
        "meta_mean_anomaly": 95.6991,
        "meta_ephemeris_type": 0,
        "meta_classification_type": "U",
        "meta_norad_cat_id": 66643,
        "meta_element_set_no": 999,
        "meta_rev_at_epoch": 297,
        "meta_bstar": 0.004581,
        "meta_mean_motion_dot": 0.01071055,
        "meta_mean_motion_ddot": 0,
        "tle_line1": "1 66643U 25271AC  25338.86459959  .01071055  00000+0  45810-2 0  9996",
        "tle_line2": "2 66643  53.1558 225.7279 0014400 264.2391  95.6991 15.82179053  2972"
      },
      "geometry": {
        "type": "Point",
        "coordinates": [
          67.46294067816737,
          -30.643903715077332
        ]
      }
    },
    {
      "type": "Feature",
      "properties": {
        "norad_id": 66644,
        "name": "STARLINK-35938",
        "group": "last-30-days",
        "lat": -29.945480528111155,
        "lon": 66.68286092197444,
        "alt_km": 319.33413485102665,
        "timestamp": "2025-12-05T18:53:12.098162+00:00",
        "meta_object_name": "STARLINK-35938",
        "meta_object_id": "2025-271AD",
        "meta_epoch": "2025-12-04T22:15:39.970080",
        "meta_mean_motion": 15.81826433,
        "meta_eccentricity": 0.0012965,
        "meta_inclination": 53.1553,
        "meta_ra_of_asc_node": 225.4081,
        "meta_arg_of_pericenter": 257.2448,
        "meta_mean_anomaly": 102.7126,
        "meta_ephemeris_type": 0,
        "meta_classification_type": "U",
        "meta_norad_cat_id": 66644,
        "meta_element_set_no": 999,
        "meta_rev_at_epoch": 298,
        "meta_bstar": 0.0033361,
        "meta_mean_motion_dot": 0.007529,
        "meta_mean_motion_ddot": 0,
        "tle_line1": "1 66644U 25271AD  25338.92754595  .00752900  00000+0  33361-2 0  9990",
        "tle_line2": "2 66644  53.1553 225.4081 0012965 257.2448 102.7126 15.81826433  2986"
      },
      "geometry": {
        "type": "Point",
        "coordinates": [
          66.68286092197444,
          -29.945480528111155
        ]
      }
    },
    {
      "type": "Feature",
      "properties": {
        "norad_id": 66645,
        "name": "SHENZHOU-22",
        "group": "last-30-days",
        "lat": -30.794178962093344,
        "lon": 16.458057785432324,
        "alt_km": 387.93721133752115,
        "timestamp": "2025-12-05T18:53:12.098174+00:00",
        "meta_object_name": "SHENZHOU-22",
        "meta_object_id": "2025-272A",
        "meta_epoch": "2025-12-05T06:48:03.993120",
        "meta_mean_motion": 15.5871605,
        "meta_eccentricity": 0.00098342,
        "meta_inclination": 41.4682,
        "meta_ra_of_asc_node": 61.9587,
        "meta_arg_of_pericenter": 333.0075,
        "meta_mean_anomaly": 27.0251,
        "meta_ephemeris_type": 0,
        "meta_classification_type": "U",
        "meta_norad_cat_id": 66645,
        "meta_element_set_no": 999,
        "meta_rev_at_epoch": 26289,
        "meta_bstar": 0.00043162186,
        "meta_mean_motion_dot": 0.00034071,
        "meta_mean_motion_ddot": 0,
        "tle_line1": "1 66645U 25272A   25339.28337955  .00034071  00000+0  43162-3 0  9992",
        "tle_line2": "2 66645  41.4682  61.9587 0009834 333.0075  27.0251 15.58716050262897"
      },
      "geometry": {
        "type": "Point",
        "coordinates": [
          16.458057785432324,
          -30.794178962093344
        ]
      }
    }
  ]
}